SITRO-AIS-39
1 61778U 24199AV  25252.87765831  .00015798  00000-0  44351-3 0  9995
2 61778  97.3355 120.9524 0010573 223.9805 136.0599 15.36580674 91098
ALTAIR (RS65S)
1 61779U 24199AW  25252.91363213  .00006928  00000-0  23836-3 0  9999
2 61779  97.3406 119.7054 0013641 224.2004 135.8148 15.30297730 94153
SITRO-AIS-37
1 61780U 24199AX  25252.92303697  .00017120  00000-0  47657-3 0  9995
2 61780  97.3364 121.0776 0010774 223.9859 136.0529 15.36824764 91100
ASRTU-1 (RS64S/BJ2CR)
1 61781U 24199AY  25252.92795931  .00005959  00000-0  20997-3 0  9997
2 61781  97.3397 119.5068 0014006 225.2781 134.7320 15.29574365 90995
TUSUR GO (RS78S)
1 61782U 24199AZ  25252.93090290  .00026634  00000-0  63513-3 0  9999
2 61782  97.3363 122.0138 0011350 209.3021 150.7591 15.41473932 91165
ZIMSAT-2 (Z2AS)
1 61783U 24199BA  25252.89567038  .00044139  00000-0  83744-3 0  9992
2 61783  97.3332 123.2259 0010468 201.7332 158.3476 15.48127639 94390
SAMSAT-IONOSPHERE (RS75S)
1 61784U 24199BB  25252.89108084  .00016010  00000-0  44968-3 0  9997
2 61784  97.3382 121.0425 0012534 216.8042 143.2342 15.36537534 94243
RTU MIREA-1 (RS51S)
1 61785U 24199BC  25252.89639641  .00016928  00000-0  46553-3 0  9996
2 61785  97.3380 121.1821 0012294 214.5709 145.4737 15.37186560 91105
SITRO-AIS-38
1 61786U 24199BD  25252.88498525  .00016913  00000-0  47482-3 0  9996
2 61786  97.3363 120.9595 0010457 225.5804 134.4585 15.36566479 91096
2024-199BE (? SWSU-60)
1 61787U 24199BE  25252.91572061  .00006984  00000-0  24320-3 0  9992
2 61787  97.3403 119.5415 0014030 224.6415 135.3697 15.29898815 94143
SITRO-AIS-45
1 61788U 24199BF  25252.92858596  .00016285  00000-0  45557-3 0  9994
2 61788  97.3352 121.0177 0010497 223.4634 136.5784 15.36684000 91080
SITRO-AIS-17
1 61789U 24199BG  25252.88853932  .00002211  00000-0  20312-3 0  9995
2 61789  97.3484 104.8210 0005063 314.5664  45.5145 14.95753933 90100
SITRO-AIS-18
1 61790U 24199BH  25252.89415090  .00001761  00000-0  16284-3 0  9999
2 61790  97.3480 104.8006 0004973 311.7012  48.3784 14.95714490 90101
HADES-R (SO-124)
1 62690U 25009CK  25252.69681036  .00049183  00000-0  13850-2 0  9998
2 62690  97.4024 333.5187 0003049 141.5826 218.5636 15.36291510 36254
OTP-2
1 63235U 25052AB  25252.64208021  .00008293  00000-0  39733-3 0  9992
2 63235  97.4143 144.6415 0009047  71.7194 288.5024 15.19144422 27206
IONOSFERA-M 03
1 64876U 25155A   25252.89025672  .00000056  00000-0  44609-4 0  9992
2 64876  98.5612 217.4649 0001033   9.6470 350.4728 14.22102211  6584
IONOSFERA-M 04
1 64877U 25155B   25252.91348318  .00000061  00000-0  47480-4 0  9997
2 64877  98.5612 217.4351 0000792  47.0624 313.0620 14.21198927  6587
INNOSAT16 (RS92S7)
1 64878U 25155C   25252.87641634  .00003436  00000-0  15530-3 0  9999
2 64878  97.4169 217.4203 0013553  91.3021 268.9768 15.21533520 37994
GEOSCAN-6 (RS92S6)
1 64879U 25155D   25252.91760566  .00008756  00000-0  37877-3 0  9999
2 64879  97.4182 217.5288 0011591  89.4427 270.8137 15.22618131 38000
GEOSCAN 1 (RS92S1)
1 64880U 25155E   25252.91656214  .00009302  00000-0  40144-3 0  9994
2 64880  97.4185 217.5325 0011599  89.9673 270.2893 15.22681483 38006
239ALFEROV (RS61S)
1 64881U 25155F   25252.91182915  .00010380  00000-0  44430-3 0  9997
2 64881  97.4199 217.5470 0011514  90.5297 269.7259 15.22930396 38009
ASTROLINE-N1
1 64882U 25155G   25252.91322947  .00007880  00000-0  34028-3 0  9992
2 64882  97.4201 217.5324 0010766  89.9167 270.3304 15.22722362 38009
ASTROLINE-N2
1 64883U 25155H   25252.91309651  .00007775  00000-0  33594-3 0  9990
2 64883  97.4197 217.5307 0010607  89.9463 270.2989 15.22706082 38007
ASTROLINE-N3
1 64884U 25155J   25252.91251886  .00007730  00000-0  33358-3 0  9996
2 64884  97.4199 217.5305 0010729  90.2058 270.0408 15.22752877 38005
ASTROLINE-N4
1 64885U 25155K   25252.89896718  .00013395  00000-0  56031-3 0  9990
2 64885  97.4163 217.5345 0012396  82.4481 277.8164 15.23635595 38008
CSTP-4.3
1 64886U 25155L   25252.89902802  .00016061  00000-0  67006-3 0  9990
2 64886  97.4158 217.5350 0012178  83.7411 276.5213 15.23686852 38007
CSTP-4.2
1 64887U 25155M   25252.90175417  .00013842  00000-0  58203-3 0  9990
2 64887  97.4176 217.5420 0011780  83.4066 276.8511 15.23458924 38008
CSTP-4.1
1 64888U 25155N   25252.83270920  .00016159  00000-0  67401-3 0  9992
2 64888  97.4165 217.4757 0012064  83.5622 276.6988 15.23693943 37999
CSTP-4.4
1 64889U 25155P   25252.91263427  .00004926  00000-0  21492-3 0  9995
2 64889  97.4201 217.5379 0010009  86.1819 274.0562 15.22568412 38000
GEOSCAN 2 (RS92S2)
1 64890U 25155Q   25252.90419520  .00009213  00000-0  39306-3 0  9990
2 64890  97.4182 217.5429 0010676  80.1432 280.1009 15.23084915 38007
GEOSCAN-5 (RS92S5)
1 64891U 25155R   25252.89958444  .00010572  00000-0  44724-3 0  9992
2 64891  97.4193 217.5500 0010169  95.8773 264.3623 15.23338462 38003
GEOSCAN-4 (RS92S4)
1 64892U 25155S   25252.89929631  .00010520  00000-0  44490-3 0  9992
2 64892  97.4194 217.5517 0010242  96.7857 263.4546 15.23349407 38003
GEOSCAN-3 (RS92S3)
1 64893U 25155T   25252.89594257  .00011488  00000-0  48290-3 0  9991
2 64893  97.4192 217.5548 0010195  98.8348 261.4044 15.23530714 38005
INNOSAT3 (RS92S0)
1 64894U 25155U   25252.89140849  .00016479  00000-0  68330-3 0  9998
2 64894  97.4191 217.5608 0010424 101.8736 258.3671 15.23905483 38003
NAHID-2
1 64895U 25155V   25252.91245282  .00007879  00000-0  34000-3 0  9990
2 64895  97.4204 217.5349 0010692  89.4985 270.7477 15.22745949 37992
